ONEWEB-0160             
1 48060U 21025U   24047.77810500 -.00000175  00000+0 -51458-3 0  9993
2 48060  87.8995 129.7185 0002858 102.7282 257.4167 13.13469556141791
ONEWEB-0163             
1 48061U 21025V   24047.76381008  .00000152  00000+0  38201-3 0  9993
2 48061  87.8991 129.7174 0001512 106.8169 253.3126 13.13470985141913
ONEWEB-0159             
1 48062U 21025W   24047.75269771  .00000185  00000+0  47078-3 0  9993
2 48062  87.8989 129.7043 0001665 112.3343 247.7963 13.13470858141837
ONEWEB-0164             
1 48063U 21025X   24047.73525443  .00000025  00000+0  32784-4 0  9995
2 48063  87.8992 129.7173 0001880 100.5294 259.6047 13.13471683141819
ONEWEB-0167             
1 48064U 21025Y   24047.76461739  .00000101  00000+0  24134-3 0  9990
2 48064  87.8993 129.7219 0001627 107.1905 252.9402 13.13469211141807
ONEWEB-0166             
1 48065U 21025Z   24047.78602893 -.00000413  00000+0 -11654-2 0  9991
2 48065  87.8987 129.7054 0001806 112.9039 247.2281 13.13469165141887
ONEWEB-0151             
1 48066U 21025AA  24047.63526158 -.00000323  00000+0 -92010-3 0  9991
2 48066  87.8988 129.7456 0001920  98.3815 261.7532 13.13471005141809
ONEWEB-0170             
1 48067U 21025AB  24047.71938022 -.00000266  00000+0 -76363-3 0  9997
2 48067  87.8990 129.7304 0002316  91.5125 268.6270 13.13471495141778
